ONEWEB-0350             
1 49214U 21083AE  25183.84641988  .00000000  00000+0 -35110-4 0  9995
2 49214  87.8957  29.6353 0001805  75.6360 284.4969 13.13471773185075
ONEWEB-0351             
1 49215U 21083AF  25183.86888005  .00000046  00000+0  80853-4 0  9994
2 49215  87.9266 344.0094 0002658  92.3433 267.8004 13.20771432190669
ONEWEB-0352             
1 49216U 21083AG  25183.82695630 -.00000344  00000+0 -97681-3 0  9990
2 49216  87.8962  29.6807 0002259  86.4789 273.6599 13.13469574185161
ONEWEB-0354             
1 49217U 21083AH  25183.81848907 -.00000067  00000+0 -19654-3 0  9993
2 49217  87.9271 344.0181 0001725  85.8000 274.3330 13.20772913190698
ONEWEB-0355             
1 49218U 21083AJ  25183.93205630  .00000145  00000+0  36165-3 0  9998
2 49218  87.8960  29.6579 0001984  81.5894 278.5460 13.13469869185050
ONEWEB-0357             
1 49219U 21083AK  25183.89108900  .00000010  00000+0 -82092-5 0  9990
2 49219  87.9266 344.0096 0002012  92.0225 268.1139 13.20773330190702
ONEWEB-0332             
1 49279U 21090A   25183.91412235 -.00000035  00000+0 -12965-3 0  9994
2 49279  87.9036 359.2102 0002050  96.7121 263.4242 13.14502534181697
ONEWEB-0347             
1 49280U 21090B   25183.80587197 -.00000031  00000+0 -10703-3 0  9998
2 49280  87.9271 344.0348 0001982 105.3284 254.8068 13.20773334184928
